0361P         2018 07  2.6087  2.772494  0.438446  219.0202  203.2518   13.8977  20220126  12.0  4.0  361P/Spacewatch                                          MPC114609
0362P         2024 07 20.6409  2.862225  0.279072   53.6776  192.5543   15.5562  20220126  12.9  2.0  362P                                                     MPEC 2017-V13
0362P         2024 07 20.6409  2.862225  0.279072   53.6776  192.5543   15.5562  20220126  12.9  2.0  362P                                                     MPEC 2017-V13
0363P         2024 11 12.3928  1.700897  0.522139  341.1608  146.8836    5.4115  20220126  17.5  4.0  363P/Lemmon                                              MPC114609
0363P         2024 11 12.3928  1.700897  0.522139  341.1608  146.8836    5.4115  20220126  17.5  4.0  363P/Lemmon                                              MPC114609
0364P         2023 05 13.9659  0.800640  0.721968  212.0164   46.1718   12.1364  20220126  17.0  2.0  364P/PANSTARRS                                           MPEC 2021-F20
0364P         2023 05 13.9659  0.800640  0.721968  212.0164   46.1718   12.1364  20220126  17.0  2.0  364P/PANSTARRS                                           MPEC 2021-F20
0365P         2023 10  9.6326  1.331837  0.579815   66.8631   86.8372    9.8202  20220126  17.0  4.0  365P/PANSTARRS                                           MPC111775
0365P         2023 10  9.6326  1.331837  0.579815   66.8631   86.8372    9.8202  20220126  17.0  4.0  365P/PANSTARRS                                           MPC111775
0366P         2025 01 31.7419  2.279236  0.348083  153.1028   70.7622    8.8579  20220126  15.0  4.0  366P/Spacewatch                                          MPC114610
0366P         2025 01 31.7419  2.279236  0.348083  153.1028   70.7622    8.8579  20220126  15.0  4.0  366P/Spacewatch                                          MPC114610
0367P         2025 01 12.3863  2.524814  0.279962  172.8723   58.7220    8.4610  20220126  17.5  2.0  367P/Catalina                                            MPC112395
0367P         2025 01 12.3863  2.524814  0.279962  172.8723   58.7220    8.4610  20220126  17.5  2.0  367P/Catalina                                            MPC112395
0368P         2018 09 15.0292  2.064041  0.626618  118.8340  257.9074   15.4808  20220126  14.0  4.0  368P/NEAT                                                MPC114610
0368P         2018 09 15.0292  2.064041  0.626618  118.8340  257.9074   15.4808  20220126  14.0  4.0  368P/NEAT                                                MPC114610
0369P         2018 10 15.5199  1.951285  0.554815   13.1614   47.2909   10.3185  20220126  15.0  4.0  369P/Hill                                                MPC114610
0369P         2018 10 15.5199  1.951285  0.554815   13.1614   47.2909   10.3185  20220126  15.0  4.0  369P/Hill                                                MPC114610
0370P         2018 06  9.9929  2.477747  0.614919  356.6837   55.0951   19.4127  20220126  13.0  4.0  370P/NEAT                                                MPEC 2021-F20
0370P         2018 06  9.9929  2.477747  0.614919  356.6837   55.0951   19.4127  20220126  13.0  4.0  370P/NEAT                                                MPEC 2021-F20
0371P         2018 10  5.4222  2.187041  0.476896  308.4959   67.2756   17.3797  20220126  16.0  4.0  371P/LINEAR-Skiff                                        MPC114610
0371P         2018 10  5.4222  2.187041  0.476896  308.4959   67.2756   17.3797  20220126  16.0  4.0  371P/LINEAR-Skiff                                        MPC114610
0372P         2018 10 23.0864  3.817960  0.152709   27.4492  325.8172    9.5095  20220126  13.5  4.0  372P/McNaught                                            MPEC 2020-K19
0372P         2018 10 23.0864  3.817960  0.152709   27.4492  325.8172    9.5095  20220126  13.5  4.0  372P/McNaught                                            MPEC 2020-K19
0373P         2019 04  8.7483  2.310330  0.392405  221.0520  231.9510   13.7651  20220126  14.5  4.0  373P/Rinner                                              MPEC 2021-F20
0373P         2019 04  8.7483  2.310330  0.392405  221.0520  231.9510   13.7651  20220126  14.5  4.0  373P/Rinner                                              MPEC 2021-F20
0374P         2019 01 11.0252  2.671019  0.462856   51.4611    7.9133   10.7659  20220126  14.0  4.0  374P/Larson                                              MPC114610
0374P         2019 01 11.0252  2.671019  0.462856   51.4611    7.9133   10.7659  20220126  14.0  4.0  374P/Larson                                              MPC114610
0375P         2018 12 20.8314  1.895953  0.658601  119.4163  359.9497   17.3614  20220126  16.0  4.0  375P/Hill                                                MPEC 2021-F20
0375P         2018 12 20.8314  1.895953  0.658601  119.4163  359.9497   17.3614  20220126  16.0  4.0  375P/Hill                                                MPEC 2021-F20
0376P         2019 09 25.3519  2.804204  0.516908  284.5630  314.5418    1.1846  20220126  12.5  4.0  376P/LONEOS                                              MPEC 2021-S45
0376P         2019 09 25.3519  2.804204  0.516908  284.5630  314.5418    1.1846  20220126  12.5  4.0  376P/LONEOS                                              MPEC 2021-S45
0377P         2020 07 12.0309  5.017818  0.251961  355.0524  226.0632    9.0238  20220126   9.5  4.0  377P/Scotti                                              MPEC 2021-N06
0377P         2020 07 12.0309  5.017818  0.251961  355.0524  226.0632    9.0238  20220126   9.5  4.0  377P/Scotti                                              MPEC 2021-N06
0378P         2020 10 18.2898  3.375336  0.469076  193.7830   94.2730   19.0451  20220126  12.0  4.0  378P/McNaught                                            MPEC 2021-Y10
0378P         2020 10 18.2898  3.375336  0.469076  193.7830   94.2730   19.0451  20220126  12.0  4.0  378P/McNaught                                            MPEC 2021-Y10
0379P         2019 08  1.3194  2.316045  0.341267   30.7626  183.8233   12.4402  20220126  15.0  4.0  379P/Spacewatch                                          MPC115889
0379P         2019 08  1.3194  2.316045  0.341267   30.7626  183.8233   12.4402  20220126  15.0  4.0  379P/Spacewatch                                          MPC115889
0380P         2019 05 30.3606  2.969604  0.336215   87.1810  132.8407    8.2554  20220126  12.5  4.0  380P/PANSTARRS                                           MPEC 2020-KB7
0380P         2019 05 30.3606  2.969604  0.336215   87.1810  132.8407    8.2554  20220126  12.5  4.0  380P/PANSTARRS                                           MPEC 2020-KB7
0381P         2019 09 27.1477  2.267740  0.681918  173.2196  173.7616   28.3778  20220126  17.5  2.0  381P/LINEAR-Spacewatch                                   MPEC 2021-J28
0381P         2019 09 27.1477  2.267740  0.681918  173.2196  173.7616   28.3778  20220126  17.5  2.0  381P/LINEAR-Spacewatch                                   MPEC 2021-J28
0382P         2022 02 22.2829  4.419581  0.318168  171.5090  173.8123    8.2497  20220126   8.0  4.0  382P/Larson                                              MPEC 2022-A21
0382P         2022 02 22.2989  4.419585  0.318169  171.5094  173.8130    8.2498  20220126   8.0  4.0  382P/Larson                                              MPC115889
0383P         2019 10 26.4211  1.419906  0.599584  133.7259  207.8460   12.3227  20220126  18.0  4.0  383P/Christensen                                         MPC118844
0383P         2019 10 26.4211  1.419906  0.599584  133.7259  207.8460   12.3227  20220126  18.0  4.0  383P/Christensen                                         MPC118844
0384P         2019 10 11.7622  1.114295  0.615848   37.6177  354.2302    7.2844  20220126  19.5  4.0  384P/Kowalski                                            MPEC 2021-S45
0384P         2019 10 11.7622  1.114295  0.615848   37.6177  354.2302    7.2844  20220126  19.5  4.0  384P/Kowalski                                            MPEC 2021-S45
0385P         2019 09 15.0813  2.565754  0.401714   44.3256  357.0606   16.8317  20220126  13.0  4.0  385P/Hill                                                MPEC 2021-F20
0385P         2019 09 15.0813  2.565754  0.401714   44.3256  357.0606   16.8317  20220126  13.0  4.0  385P/Hill                                                MPEC 2021-F20
0386P         2020 08 19.1437  2.367224  0.416235  353.1792  134.9451   15.2297  20220126  14.5  4.0  386P/PANSTARRS                                           MPEC 2021-L04
0386P         2020 08 19.1437  2.367224  0.416235  353.1792  134.9451   15.2297  20220126  14.5  4.0  386P/PANSTARRS                                           MPEC 2021-L04
0387P         2019 09  6.4098  1.264928  0.736345  162.7750  259.2923    8.9224  20220126  15.0  4.0  387P/Boattini                                            MPEC 2021-J28
0387P         2019 09  6.4098  1.264928  0.736345  162.7750  259.2923    8.9224  20220126  15.0  4.0  387P/Boattini                                            MPEC 2021-J28
0388P         2019 07 23.6911  2.001516  0.618224   42.3301   37.0420   23.8769  20220126  13.0  4.0  388P/Gibbs                                               MPEC 2021-S45
0388P         2019 07 23.6911  2.001516  0.618224   42.3301   37.0420   23.8769  20220126  13.0  4.0  388P/Gibbs                                               MPEC 2021-S45
0389P         2019 12 29.2563  1.664738  0.704314  249.3480  218.8604  160.0757  20220126  16.0  4.0  389P/Siding Spring                                       MPEC 2021-J28
0389P         2019 12 29.2563  1.664738  0.704314  249.3480  218.8604  160.0757  20220126  16.0  4.0  389P/Siding Spring                                       MPEC 2021-J28
0390P         2020 03 22.4112  1.699562  0.707289  232.3626  152.2747   18.5618  20220126  12.0  4.0  390P/Gibbs                                               MPEC 2021-S45
